NORAD_CAT_ID,OBJECT_NAME,OBJECT_TYPE,EPOCH,MEAN_MOTION,ECCENTRICITY,INCLINATION,RA_OF_ASC_NODE,ARG_OF_PERICENTER,MEAN_ANOMALY,BSTAR,MEAN_MOTION_DOT,MEAN_MOTION_DDOT,TLE_LINE0,TLE_LINE1,TLE_LINE2,SEMIMAJOR_AXIS,PERIOD,APOGEE,PERIGEE,DECAYED
55402.0,STARLINK-5071,PAYLOAD,2024-02-24 13:57:39,14.9834442,0.000288,70.0003,140.6833,265.1999,94.8831,0.00019915,2.285e-05,0.0,0 STARLINK-5071,1 55402U 23014M   24055.58170496  .00002285  00000-0  19915-3 0  9997,2 55402  70.0003 140.6833 0002880 265.1999  94.8831 14.98344420 60594,6950.148,96.106,574.015,570.012,0.0
55402.0,STARLINK-5071,PAYLOAD,2024-02-25 12:23:33,14.98332035,0.0002476,70.0007,138.3277,263.4558,96.632,1.7571e-05,1.17e-06,0.0,0 STARLINK-5071,1 55402U 23014M   24056.51635504  .00000117  00000-0  17571-4 0  9996,2 55402  70.0007 138.3277 0002476 263.4558  96.6320 14.98332035 59799,6950.187,96.107,573.772,570.331,0.0
55402.0,STARLINK-5071,PAYLOAD,2024-02-25 13:59:41,14.9832576,0.0002747,70.0007,138.16,270.8292,89.2552,6.0208e-05,6.25e-06,0.0,0 STARLINK-5071,1 55402U 23014M   24056.58311797  .00000625  00000-0  60208-4 0  9997,2 55402  70.0007 138.1600 0002747 270.8292  89.2552 14.98325760 60744,6950.206,96.107,573.98,570.162,0.0
55402.0,STARLINK-5071,PAYLOAD,2024-02-25 22:00:21,14.98334896,0.0002668,70.0009,137.3193,268.4837,91.6017,-0.0001365,-1.721e-05,0.0,0 STARLINK-5071,1 55402U 23014M   24056.91691604 -.00001721  00000-0 -13650-3 0  9990,2 55402  70.0009 137.3193 0002668 268.4837  91.6017 14.98334896 60792,6950.178,96.107,573.897,570.188,0.0
55402.0,STARLINK-5071,PAYLOAD,2024-02-26 14:01:41,14.98354765,0.0002255,70.0006,135.6365,255.5061,104.5848,-0.00040867,-4.969e-05,0.0,0 STARLINK-5071,1 55402U 23014M   24057.58450901 -.00004969  00000-0 -40867-3 0  9994,2 55402  70.0006 135.6365 0002255 255.5061 104.5848 14.98354765 60893,6950.116,96.105,573.549,570.414,0.0
55402.0,STARLINK-5071,PAYLOAD,2024-02-26 15:37:49,14.98361532,0.000227,70.0007,135.4678,256.8195,103.2711,-0.00050639,-6.134e-05,0.0,0 STARLINK-5071,1 55402U 23014M   24057.65126605 -.00006134  00000-0 -50639-3 0  9997,2 55402  70.0007 135.4678 0002270 256.8195 103.2711 14.98361532 59969,6950.095,96.105,573.538,570.383,0.0
55402.0,STARLINK-5071,PAYLOAD,2024-02-27 04:26:54,14.98321215,0.0002405,70.0019,134.1213,269.1014,90.9869,5.0605e-05,5.11e-06,0.0,0 STARLINK-5071,1 55402U 23014M   24058.18535830  .00000511  00000-0  50605-4 0  9995,2 55402  70.0019 134.1213 0002405 269.1014  90.9869 14.98321215 60041,6950.22,96.108,573.757,570.414,0.0
55402.0,STARLINK-5071,PAYLOAD,2024-02-27 14:03:43,14.98320816,0.0002869,70.0,133.1108,269.5985,90.4845,-3.3847e-05,-4.97e-06,0.0,0 STARLINK-5071,1 55402U 23014M   24058.58592288 -.00000497  00000-0 -33847-4 0  9993,2 55402  70.0000 133.1108 0002869 269.5985  90.4845 14.98320816 61044,6950.221,96.108,574.08,570.092,0.0
55402.0,STARLINK-5071,PAYLOAD,2024-02-27 22:04:23,14.98340194,0.0003366,70.0001,132.2685,272.6589,87.4185,-0.0002299,-2.836e-05,0.0,0 STARLINK-5071,1 55402U 23014M   24058.91971436 -.00002836  00000-0 -22990-3 0  9991,2 55402  70.0001 132.2685 0003366 272.6589  87.4185 14.98340194 61092,6950.161,96.106,574.366,569.687,0.0
55402.0,STARLINK-5071,PAYLOAD,2024-02-28 04:28:56,14.9832262,0.0003177,70.001,131.5949,272.4008,87.6788,5.12e-05,5.18e-06,0.0,0 STARLINK-5071,1 55402U 23014M   24059.18676059  .00000518  00000-0  51200-4 0  9994,2 55402  70.0010 131.5949 0003177 272.4008  87.6788 14.98322620 60196,6950.216,96.107,574.289,569.873,0.0
55402.0,STARLINK-5071,PAYLOAD,2024-02-28 10:53:27,14.98332699,0.0002665,70.0003,130.9223,269.5233,90.5621,0.00010339,1.141e-05,0.0,0 STARLINK-5071,1 55402U 23014M   24059.45379400  .00001141  00000-0  10339-3 0  9994,2 55402  70.0003 130.9223 0002665 269.5233  90.5621 14.98332699 60235,6950.185,96.107,573.902,570.197,0.0
55402.0,STARLINK-5071,PAYLOAD,2024-02-28 14:05:44,14.98322591,0.0002912,69.9998,130.5852,269.8414,90.2411,0.00022698,2.616e-05,0.0,0 STARLINK-5071,1 55402U 23014M   24059.58731705  .00002616  00000-0  22698-3 0  9997,2 55402  69.9998 130.5852 0002912 269.8414  90.2411 14.98322591 61198,6950.216,96.107,574.105,570.057,0.0
55402.0,STARLINK-5071,PAYLOAD,2024-02-29 14:07:45,14.98324153,0.0002746,69.9998,128.0604,264.6644,95.4202,5.7662e-05,5.95e-06,0.0,0 STARLINK-5071,1 55402U 23014M   24060.58872214  .00000595  00000-0  57662-4 0  9994,2 55402  69.9998 128.0604 0002746 264.6644  95.4202 14.98324153 61346,6950.211,96.107,573.985,570.167,0.0
55402.0,STARLINK-5071,PAYLOAD,2024-02-29 22:08:25,14.98327664,0.0003091,69.9991,127.2182,270.3487,89.7318,2.3317e-05,1.85e-06,0.0,0 STARLINK-5071,1 55402U 23014M   24060.92252113  .00000185  00000-0  23317-4 0  9997,2 55402  69.9991 127.2182 0003091 270.3487  89.7318 14.98327664 61393,6950.2,96.107,574.213,569.917,0.0
55402.0,STARLINK-5071,PAYLOAD,2024-03-01 14:09:46,14.98332107,0.000305,69.9992,125.5362,271.5646,88.5164,-1.3846e-05,-2.58e-06,0.0,0 STARLINK-5071,1 55402U 23014M   24061.59011982 -.00000258  00000-0 -13846-4 0  9997,2 55402  69.9992 125.5362 0003050 271.5646  88.5164 14.98332107 61495,6950.186,96.107,574.171,569.932,0.0
55402.0,STARLINK-5071,PAYLOAD,2024-03-02 14:11:46,14.98336101,0.000293,69.9994,123.0114,267.5403,92.542,9.2847e-05,1.015e-05,0.0,0 STARLINK-5071,1 55402U 23014M   24062.59151303  .00001015  00000-0  92847-4 0  9998,2 55402  69.9994 123.0114 0002930 267.5403  92.5420 14.98336101 61642,6950.174,96.107,574.075,570.003,0.0
55402.0,STARLINK-5071,PAYLOAD,2024-03-03 03:00:52,14.98256286,0.0003131,69.9997,121.6661,265.2767,94.8034,0.0012413,0.00014721,0.0,0 STARLINK-5071,1 55402U 23014M   24063.12560863  .00014721  00000-0  12413-2 0  9990,2 55402  69.9997 121.6661 0003131 265.2767  94.8034 14.98256286 60783,6950.421,96.112,574.462,570.11,0.0
55402.0,STARLINK-5071,PAYLOAD,2024-03-03 11:01:32,14.98328353,0.0002656,69.9998,120.8243,263.5035,96.5821,1.3701e-05,7.1e-07,0.0,0 STARLINK-5071,1 55402U 23014M   24063.45939917  .00000071  00000-0  13701-4 0  9992,2 55402  69.9998 120.8243 0002656 263.5035  96.5821 14.98328353 60835,6950.198,96.107,573.909,570.217,0.0
55402.0,STARLINK-5071,PAYLOAD,2024-03-03 12:37:40,14.98328515,0.0002775,70.0,120.656,266.7713,93.3129,7.7969e-06,0.0,0.0,0 STARLINK-5071,1 55402U 23014M   24063.52615917  .00000000  00000-0  77969-5 0  9990,2 55402  70.0000 120.6560 0002775 266.7713  93.3129 14.98328515 61783,6950.197,96.107,573.991,570.134,0.0
55402.0,STARLINK-5071,PAYLOAD,2024-03-04 03:02:52,14.98334928,0.0002779,69.9998,119.1403,260.3505,99.734,2.2274e-05,1.73e-06,0.0,0 STARLINK-5071,1 55402U 23014M   24064.12699318  .00000173  00000-0  22274-4 0  9993,2 55402  69.9998 119.1403 0002779 260.3505  99.7340 14.98334928 60934,6950.178,96.107,573.974,570.111,0.0
55402.0,STARLINK-5071,PAYLOAD,2024-03-04 12:39:40,14.98337707,0.0002552,70.0002,118.1304,263.7873,96.2996,6.7394e-05,7.11e-06,0.0,0 STARLINK-5071,1 55402U 23014M   24064.52754891  .00000711  00000-0  67394-4 0  9995,2 55402  70.0002 118.1304 0002552 263.7873  96.2996 14.98337707 61934,6950.169,96.107,573.808,570.26,0.0
55402.0,STARLINK-5071,PAYLOAD,2024-03-05 12:41:39,14.98352539,0.0002572,70.0009,115.6064,267.3261,92.7604,0.00033179,3.87e-05,0.0,0 STARLINK-5071,1 55402U 23014M   24065.52893429  .00003870  00000-0  33179-3 0  9999,2 55402  70.0009 115.6064 0002572 267.3261  92.7604 14.98352539 62083,6950.123,96.106,573.776,570.201,0.0
55402.0,STARLINK-5071,PAYLOAD,2024-03-05 20:42:18,14.9837347,0.0003114,69.9993,114.7625,266.8456,93.2347,0.00043622,5.122e-05,0.0,0 STARLINK-5071,1 55402U 23014M   24065.86271006  .00005122  00000-0  43622-3 0  9993,2 55402  69.9993 114.7625 0003114 266.8456  93.2347 14.98373470 61196,6950.058,96.104,574.088,569.759,0.0
55402.0,STARLINK-5071,PAYLOAD,2024-03-06 11:07:34,14.98319866,0.0002218,70.0009,113.2498,249.7089,110.3832,-0.00021233,-2.625e-05,0.0,0 STARLINK-5071,1 55402U 23014M   24066.46359351 -.00002625  00000-0 -21233-3 0  9991,2 55402  70.0009 113.2498 0002218 249.7089 110.3832 14.98319866 61284,6950.224,96.108,573.631,570.548,0.0
55402.0,STARLINK-5071,PAYLOAD,2024-03-06 12:43:42,14.98325309,0.0002901,69.999,113.0799,269.7291,90.3536,-0.00019632,-2.434e-05,0.0,0 STARLINK-5071,1 55402U 23014M   24066.53034899 -.00002434  00000-0 -19632-3 0  9994,2 55402  69.9990 113.0799 0002901 269.7291  90.3536 14.98325309 62231,6950.207,96.107,574.089,570.056,0.0
55402.0,STARLINK-5071,PAYLOAD,2024-03-07 12:45:43,14.98311752,0.0002942,69.9989,110.5546,271.5536,88.5286,4.1177e-06,-4.4e-07,0.0,0 STARLINK-5071,1 55402U 23014M   24067.53175807 -.00000044  00000-0  41177-5 0  9995,2 55402  69.9989 110.5546 0002942 271.5536  88.5286 14.98311752 62383,6950.249,96.108,574.159,570.07,0.0
55402.0,STARLINK-5071,PAYLOAD,2024-03-08 03:10:54,14.98376327,0.0003299,69.9986,109.0397,273.8173,86.2609,-0.00092786,-0.0001116,0.0,0 STARLINK-5071,1 55402U 23014M   24068.13257867 -.00011160  00000-0 -92786-3 0  9991,2 55402  69.9986 109.0397 0003299 273.8173  86.2609 14.98376327 61534,6950.05,96.104,574.207,569.622,0.0
55402.0,STARLINK-5071,PAYLOAD,2024-03-08 11:11:35,14.9831797,0.0002902,69.9986,108.198,271.8038,88.2788,0.00013502,1.518e-05,0.0,0 STARLINK-5071,1 55402U 23014M   24068.46638858  .00001518  00000-0  13502-3 0  9993,2 55402  69.9986 108.1980 0002902 271.8038  88.2788 14.98317970 61584,6950.23,96.108,574.112,570.078,0.0
55402.0,STARLINK-5071,PAYLOAD,2024-03-08 12:47:43,14.98319097,0.0002899,69.9986,108.0297,271.8343,88.2484,0.00014489,1.636e-05,0.0,0 STARLINK-5071,1 55402U 23014M   24068.53314813  .00001636  00000-0  14489-3 0  9999,2 55402  69.9986 108.0297 0002899 271.8343  88.2484 14.98319097 62539,6950.227,96.108,574.106,570.077,0.0
55402.0,STARLINK-5071,PAYLOAD,2024-03-08 19:12:16,14.98318655,0.000287,69.9987,107.3562,272.125,87.9581,0.0001162,1.293e-05,0.0,0 STARLINK-5071,1 55402U 23014M   24068.80019135  .00001293  00000-0  11620-3 0  9991,2 55402  69.9987 107.3562 0002870 272.1250  87.9581 14.98318655 62574,6950.228,96.108,574.088,570.098,0.0
